{
  "type": "FeatureCollection",
  "features": [
    {
      "type": "Feature",
      "properties": {
        "norad_id": 40376,
        "name": "SMAP",
        "group": "resource",
        "lat": 62.0861421106979,
        "lon": -167.05210790430394,
        "alt_km": 675.5540315518556,
        "timestamp": "2025-12-18T15:47:10.877595+00:00",
        "meta_object_name": "SMAP",
        "meta_object_id": "2015-003A",
        "meta_epoch": "2025-12-18T05:24:30.698784",
        "meta_mean_motion": 14.6335199,
        "meta_eccentricity": 0.00012161,
        "meta_inclination": 98.1288,
        "meta_ra_of_asc_node": 356.8701,
        "meta_arg_of_pericenter": 91.1406,
        "meta_mean_anomaly": 268.9936,
        "meta_ephemeris_type": 0,
        "meta_classification_type": "U",
        "meta_norad_cat_id": 40376,
        "meta_element_set_no": 999,
        "meta_rev_at_epoch": 58115,
        "meta_bstar": 9.8047665e-05,
        "meta_mean_motion_dot": 4.6e-06,
        "meta_mean_motion_ddot": 0,
        "tle_line1": "1 40376U 15003A   25352.22535531  .00000460  00000+0  98048-4 0  9994",
        "tle_line2": "2 40376  98.1288 356.8701 0001216  91.1406 268.9936 14.63351990581153"
      },
      "geometry": {
        "type": "Point",
        "coordinates": [
          -167.05210790430394,
          62.0861421106979
        ]
      }
    },
    {
      "type": "Feature",
      "properties": {
        "norad_id": 40536,
        "name": "KOMPSAT-3A",
        "group": "resource",
        "lat": 80.92363495244334,
        "lon": -90.29410855750066,
        "alt_km": 423.2514129983747,
        "timestamp": "2025-12-18T15:47:10.877605+00:00",
        "meta_object_name": "KOMPSAT-3A",
        "meta_object_id": "2015-014A",
        "meta_epoch": "2025-12-18T06:05:15.124128",
        "meta_mean_motion": 15.44145175,
        "meta_eccentricity": 0.00052778,
        "meta_inclination": 97.6786,
        "meta_ra_of_asc_node": 326.9053,
        "meta_arg_of_pericenter": 114.5616,
        "meta_mean_anomaly": 245.6182,
        "meta_ephemeris_type": 0,
        "meta_classification_type": "U",
        "meta_norad_cat_id": 40536,
        "meta_element_set_no": 999,
        "meta_rev_at_epoch": 59380,
        "meta_bstar": 0.00038982024,
        "meta_mean_motion_dot": 0.00017786,
        "meta_mean_motion_ddot": 0,
        "tle_line1": "1 40536U 15014A   25352.25364727  .00017786  00000+0  38982-3 0  9993",
        "tle_line2": "2 40536  97.6786 326.9053 0005277 114.5616 245.6182 15.44145175593806"
      },
      "geometry": {
        "type": "Point",
        "coordinates": [
          -90.29410855750066,
          80.92363495244334
        ]
      }
    },
    {
      "type": "Feature",
      "properties": {
        "norad_id": 40697,
        "name": "SENTINEL-2A",
        "group": "resource",
        "lat": 12.805322487659874,
        "lon": 63.14114383492773,
        "alt_km": 789.9511486851425,
        "timestamp": "2025-12-18T15:47:10.877615+00:00",
        "meta_object_name": "SENTINEL-2A",
        "meta_object_id": "2015-028A",
        "meta_epoch": "2025-12-18T07:20:03.592032",
        "meta_mean_motion": 14.30807747,
        "meta_eccentricity": 0.00010526,
        "meta_inclination": 98.5745,
        "meta_ra_of_asc_node": 64.7591,
        "meta_arg_of_pericenter": 88.3188,
        "meta_mean_anomaly": 271.8115,
        "meta_ephemeris_type": 0,
        "meta_classification_type": "U",
        "meta_norad_cat_id": 40697,
        "meta_element_set_no": 999,
        "meta_rev_at_epoch": 54786,
        "meta_bstar": 8.9129703e-05,
        "meta_mean_motion_dot": 1.9e-06,
        "meta_mean_motion_ddot": 0,
        "tle_line1": "1 40697U 15028A   25352.30559713  .00000190  00000+0  89130-4 0  9996",
        "tle_line2": "2 40697  98.5745  64.7591 0001052  88.3188 271.8115 14.30807747547868"
      },
      "geometry": {
        "type": "Point",
        "coordinates": [
          63.14114383492773,
          12.805322487659874
        ]
      }
    },
    {
      "type": "Feature",
      "properties": {
        "norad_id": 40701,
        "name": "GAOFEN-8",
        "group": "resource",
        "lat": -13.699784733375564,
        "lon": -10.801387372328687,
        "alt_km": 452.4977005967057,
        "timestamp": "2025-12-18T15:47:10.877625+00:00",
        "meta_object_name": "GAOFEN-8",
        "meta_object_id": "2015-030A",
        "meta_epoch": "2025-12-18T07:08:40.320960",
        "meta_mean_motion": 15.38725697,
        "meta_eccentricity": 0.00118824,
        "meta_inclination": 97.6902,
        "meta_ra_of_asc_node": 170.7087,
        "meta_arg_of_pericenter": 119.575,
        "meta_mean_anomaly": 240.6681,
        "meta_ephemeris_type": 0,
        "meta_classification_type": "U",
        "meta_norad_cat_id": 40701,
        "meta_element_set_no": 999,
        "meta_rev_at_epoch": 58356,
        "meta_bstar": 0.00029890381,
        "meta_mean_motion_dot": 0.00011381,
        "meta_mean_motion_ddot": 0,
        "tle_line1": "1 40701U 15030A   25352.29768890  .00011381  00000+0  29890-3 0  9991",
        "tle_line2": "2 40701  97.6902 170.7087 0011882 119.5750 240.6681 15.38725697583562"
      },
      "geometry": {
        "type": "Point",
        "coordinates": [
          -10.801387372328687,
          -13.699784733375564
        ]
      }
    },
    {
      "type": "Feature",
      "properties": {
        "norad_id": 40718,
        "name": "CARBONITE 1 (CBNT-1)",
        "group": "resource",
        "lat": 15.596854785531416,
        "lon": 171.29311997814867,
        "alt_km": 630.0281410771759,
        "timestamp": "2025-12-18T15:47:10.877635+00:00",
        "meta_object_name": "CARBONITE 1 (CBNT-1)",
        "meta_object_id": "2015-032D",
        "meta_epoch": "2025-12-18T07:37:02.730144",
        "meta_mean_motion": 14.82767543,
        "meta_eccentricity": 0.00148234,
        "meta_inclination": 97.6395,
        "meta_ra_of_asc_node": 173.1151,
        "meta_arg_of_pericenter": 163.3354,
        "meta_mean_anomaly": 196.835,
        "meta_ephemeris_type": 0,
        "meta_classification_type": "U",
        "meta_norad_cat_id": 40718,
        "meta_element_set_no": 999,
        "meta_rev_at_epoch": 56253,
        "meta_bstar": 0.00016634945,
        "meta_mean_motion_dot": 1.296e-05,
        "meta_mean_motion_ddot": 0,
        "tle_line1": "1 40718U 15032D   25352.31739271  .00001296  00000+0  16635-3 0  9992",
        "tle_line2": "2 40718  97.6395 173.1151 0014823 163.3354 196.8350 14.82767543562533"
      },
      "geometry": {
        "type": "Point",
        "coordinates": [
          171.29311997814867,
          15.596854785531416
        ]
      }
    },
    {
      "type": "Feature",
      "properties": {
        "norad_id": 40878,
        "name": "YAOGAN-27",
        "group": "resource",
        "lat": 50.39760043031049,
        "lon": 174.45146710480194,
        "alt_km": 1199.6546245758764,
        "timestamp": "2025-12-18T15:47:10.877645+00:00",
        "meta_object_name": "YAOGAN-27",
        "meta_object_id": "2015-040A",
        "meta_epoch": "2025-12-18T06:00:45.936288",
        "meta_mean_motion": 13.16062418,
        "meta_eccentricity": 0.00075637,
        "meta_inclination": 100.1007,
        "meta_ra_of_asc_node": 341.6214,
        "meta_arg_of_pericenter": 273.0945,
        "meta_mean_anomaly": 86.9304,
        "meta_ephemeris_type": 0,
        "meta_classification_type": "U",
        "meta_norad_cat_id": 40878,
        "meta_element_set_no": 999,
        "meta_rev_at_epoch": 49386,
        "meta_bstar": 0.0011155455,
        "meta_mean_motion_dot": 3.81e-06,
        "meta_mean_motion_ddot": 0,
        "tle_line1": "1 40878U 15040A   25352.25053167  .00000381  00000+0  11155-2 0  9999",
        "tle_line2": "2 40878 100.1007 341.6214 0007563 273.0945  86.9304 13.16062418493862"
      },
      "geometry": {
        "type": "Point",
        "coordinates": [
          174.45146710480194,
          50.39760043031049
        ]
      }
    },
    {
      "type": "Feature",
      "properties": {
        "norad_id": 40894,
        "name": "GAOFEN-9 01",
        "group": "resource",
        "lat": -69.19042911943322,
        "lon": 52.07872130720433,
        "alt_km": 627.4646256605856,
        "timestamp": "2025-12-18T15:47:10.877655+00:00",
        "meta_object_name": "GAOFEN-9 01",
        "meta_object_id": "2015-047A",
        "meta_epoch": "2025-12-18T06:23:01.038336",
        "meta_mean_motion": 14.82436005,
        "meta_eccentricity": 0.00279564,
        "meta_inclination": 97.6536,
        "meta_ra_of_asc_node": 30.9827,
        "meta_arg_of_pericenter": 16.6099,
        "meta_mean_anomaly": 343.6024,
        "meta_ephemeris_type": 0,
        "meta_classification_type": "U",
        "meta_norad_cat_id": 40894,
        "meta_element_set_no": 999,
        "meta_rev_at_epoch": 55338,
        "meta_bstar": 0.00012291915,
        "meta_mean_motion_dot": 9.41e-06,
        "meta_mean_motion_ddot": 0,
        "tle_line1": "1 40894U 15047A   25352.26598424  .00000941  00000+0  12292-3 0  9991",
        "tle_line2": "2 40894  97.6536  30.9827 0027956  16.6099 343.6024 14.82436005553381"
      },
      "geometry": {
        "type": "Point",
        "coordinates": [
          52.07872130720433,
          -69.19042911943322
        ]
      }
    }
  ]
}